SHIJIAN-16 (SJ-16)      
1 39358U 13057A   25330.97815532  .00002314  00000+0  23088-3 0  9990
2 39358  74.9735  19.4761 0017069 357.2074   2.9015 14.91921158656188
SL-4 R/B                
1 39679U 14021B   25330.67962012  .00016099  00000+0  38722-3 0  9997
2 39679  51.6069 118.6101 0103094  88.4676 272.8113 15.36082508640425
ALOS-2                  
1 39766U 14029A   25330.91694819  .00001004  00000+0  14128-3 0  9990
2 39766  97.9236  65.9880 0001363  98.7846 261.3520 14.79481195621670
YAOGAN-29               
1 41038U 15069A   25330.96230836  .00000585  00000+0  78888-4 0  9997
2 41038  98.0235 354.0823 0001252  22.3427 337.7841 14.82856301540651
ASTRO-H (HITOMI)        
1 41337U 16012A   25330.61943598  .00003968  00000+0  23768-3 0  9990
2 41337  31.0006 301.2835 0009584  14.6398 345.4517 15.09201801536649
HXMT (HUIYAN)           
1 42758U 17034A   25330.97949722  .00007444  00000+0  38655-3 0  9991
2 42758  43.0133 227.0739 0033716 304.1894  55.5759 15.16042884466945
CZ-2C R/B               
1 43521U 18054D   25330.60560265  .00098287  00000+0  75858-3 0  9995
2 43521  35.1353 289.9942 0020408 338.0830  21.9028 15.70362191412519
SAOCOM 1A               
1 43641U 18076A   25330.94194809  .00000602  00000+0  82143-4 0  9996
2 43641  97.8858 155.5937 0001582  89.4930 270.6464 14.82151090386141
H-2A R/B                
1 43682U 18084L   25330.48143129  .00019330  00000+0  53654-3 0  9990
2 43682  98.8788 161.2021 0028632  21.8755 338.3699 15.36561411389908
SAOCOM 1B               
1 46265U 20059A   25330.90568856  .00000628  00000+0  85394-4 0  9997
2 46265  97.8846 154.6594 0001338  90.1446 269.9920 14.82159789283521
CSS (TIANHE)            
1 48274U 21035A   25330.76049338  .00023599  00000+0  30515-3 0  9993
2 48274  41.4669 113.6485 0010761 276.2599  83.7013 15.58310216261531
COSMOS 2550             
1 48865U 21056A   25330.81540081 -.00000141  00000+0  15339-5 0  9997
2 48865  67.1432 352.1024 0008298 270.4119  89.6085 15.33840302247686
