CCSDS_OMM_VERS = 2.0
CREATION_DATE  = 
ORIGINATOR     = 

OBJECT_NAME    = SHIJIAN-16 (SJ-16)
OBJECT_ID      = 2013-057A
CENTER_NAME    = EARTH
REF_FRAME      = TEME
TIME_SYSTEM    = UTC
MEAN_ELEMENT_THEORY = SGP/SGP4

EPOCH          = 2025-11-26T23:28:32.619648
MEAN_MOTION    = 14.91921158
ECCENTRICITY   = .00170691
INCLINATION    = 74.9735
RA_OF_ASC_NODE = 19.4761
ARG_OF_PERICENTER = 357.2074
MEAN_ANOMALY   = 2.9015

EPHEMERIS_TYPE = 0
CLASSIFICATION_TYPE = U
NORAD_CAT_ID   = 39358
ELEMENT_SET_NO = 999
REV_AT_EPOCH   = 65618
BSTAR          = .23087962E-3
MEAN_MOTION_DOT = .2314E-4
MEAN_MOTION_DDOT = 0

CCSDS_OMM_VERS = 2.0
CREATION_DATE  = 
ORIGINATOR     = 

OBJECT_NAME    = SL-4 R/B
OBJECT_ID      = 2014-021B
CENTER_NAME    = EARTH
REF_FRAME      = TEME
TIME_SYSTEM    = UTC
MEAN_ELEMENT_THEORY = SGP/SGP4

EPOCH          = 2025-11-26T16:18:39.178368
MEAN_MOTION    = 15.36082508
ECCENTRICITY   = .01030948
INCLINATION    = 51.6069
RA_OF_ASC_NODE = 118.6101
ARG_OF_PERICENTER = 88.4676
MEAN_ANOMALY   = 272.8113

EPHEMERIS_TYPE = 0
CLASSIFICATION_TYPE = U
NORAD_CAT_ID   = 39679
ELEMENT_SET_NO = 999
REV_AT_EPOCH   = 64042
BSTAR          = .38722102E-3
MEAN_MOTION_DOT = .16099E-3
MEAN_MOTION_DDOT = 0

CCSDS_OMM_VERS = 2.0
CREATION_DATE  = 
ORIGINATOR     = 

OBJECT_NAME    = ALOS-2
OBJECT_ID      = 2014-029A
CENTER_NAME    = EARTH
REF_FRAME      = TEME
TIME_SYSTEM    = UTC
MEAN_ELEMENT_THEORY = SGP/SGP4

EPOCH          = 2025-11-26T22:00:24.323616
MEAN_MOTION    = 14.79481195
ECCENTRICITY   = .00013635
INCLINATION    = 97.9236
RA_OF_ASC_NODE = 65.9880
ARG_OF_PERICENTER = 98.7846
MEAN_ANOMALY   = 261.3520

EPHEMERIS_TYPE = 0
CLASSIFICATION_TYPE = U
NORAD_CAT_ID   = 39766
ELEMENT_SET_NO = 999
REV_AT_EPOCH   = 62167
BSTAR          = .14127657E-3
MEAN_MOTION_DOT = .1004E-4
MEAN_MOTION_DDOT = 0

CCSDS_OMM_VERS = 2.0
CREATION_DATE  = 
ORIGINATOR     = 

OBJECT_NAME    = YAOGAN-29
OBJECT_ID      = 2015-069A
CENTER_NAME    = EARTH
REF_FRAME      = TEME
TIME_SYSTEM    = UTC
MEAN_ELEMENT_THEORY = SGP/SGP4

EPOCH          = 2025-11-26T23:05:43.442304
MEAN_MOTION    = 14.82856301
ECCENTRICITY   = .00012522
INCLINATION    = 98.0235
RA_OF_ASC_NODE = 354.0823
ARG_OF_PERICENTER = 22.3427
MEAN_ANOMALY   = 337.7841

EPHEMERIS_TYPE = 0
CLASSIFICATION_TYPE = U
NORAD_CAT_ID   = 41038
ELEMENT_SET_NO = 999
REV_AT_EPOCH   = 54065
BSTAR          = .78887957E-4
MEAN_MOTION_DOT = .585E-5
MEAN_MOTION_DDOT = 0

CCSDS_OMM_VERS = 2.0
CREATION_DATE  = 
ORIGINATOR     = 

OBJECT_NAME    = ASTRO-H (HITOMI)
OBJECT_ID      = 2016-012A
CENTER_NAME    = EARTH
REF_FRAME      = TEME
TIME_SYSTEM    = UTC
MEAN_ELEMENT_THEORY = SGP/SGP4

EPOCH          = 2025-11-26T14:51:59.268672
MEAN_MOTION    = 15.09201801
ECCENTRICITY   = .00095848
INCLINATION    = 31.0006
RA_OF_ASC_NODE = 301.2835
ARG_OF_PERICENTER = 14.6398
MEAN_ANOMALY   = 345.4517

EPHEMERIS_TYPE = 0
CLASSIFICATION_TYPE = U
NORAD_CAT_ID   = 41337
ELEMENT_SET_NO = 999
REV_AT_EPOCH   = 53664
BSTAR          = .23767609E-3
MEAN_MOTION_DOT = .3968E-4
MEAN_MOTION_DDOT = 0

CCSDS_OMM_VERS = 2.0
CREATION_DATE  = 
ORIGINATOR     = 

OBJECT_NAME    = HXMT (HUIYAN)
OBJECT_ID      = 2017-034A
CENTER_NAME    = EARTH
REF_FRAME      = TEME
TIME_SYSTEM    = UTC
MEAN_ELEMENT_THEORY = SGP/SGP4

EPOCH          = 2025-11-26T23:30:28.559808
MEAN_MOTION    = 15.16042884
ECCENTRICITY   = .00337163
INCLINATION    = 43.0133
RA_OF_ASC_NODE = 227.0739
ARG_OF_PERICENTER = 304.1894
MEAN_ANOMALY   = 55.5759

EPHEMERIS_TYPE = 0
CLASSIFICATION_TYPE = U
NORAD_CAT_ID   = 42758
ELEMENT_SET_NO = 999
REV_AT_EPOCH   = 46694
BSTAR          = .38655357E-3
MEAN_MOTION_DOT = .7444E-4
MEAN_MOTION_DDOT = 0

CCSDS_OMM_VERS = 2.0
CREATION_DATE  = 
ORIGINATOR     = 

OBJECT_NAME    = CZ-2C R/B
OBJECT_ID      = 2018-054D
CENTER_NAME    = EARTH
REF_FRAME      = TEME
TIME_SYSTEM    = UTC
MEAN_ELEMENT_THEORY = SGP/SGP4

EPOCH          = 2025-11-26T14:32:04.068960
MEAN_MOTION    = 15.70362191
ECCENTRICITY   = .00204084
INCLINATION    = 35.1353
RA_OF_ASC_NODE = 289.9942
ARG_OF_PERICENTER = 338.0830
MEAN_ANOMALY   = 21.9028

EPHEMERIS_TYPE = 0
CLASSIFICATION_TYPE = U
NORAD_CAT_ID   = 43521
ELEMENT_SET_NO = 999
REV_AT_EPOCH   = 41251
BSTAR          = .7585804E-3
MEAN_MOTION_DOT = .98287E-3
MEAN_MOTION_DDOT = 0

CCSDS_OMM_VERS = 2.0
CREATION_DATE  = 
ORIGINATOR     = 

OBJECT_NAME    = SAOCOM 1A
OBJECT_ID      = 2018-076A
CENTER_NAME    = EARTH
REF_FRAME      = TEME
TIME_SYSTEM    = UTC
MEAN_ELEMENT_THEORY = SGP/SGP4

EPOCH          = 2025-11-26T22:36:24.314976
MEAN_MOTION    = 14.82151090
ECCENTRICITY   = .0001582
INCLINATION    = 97.8858
RA_OF_ASC_NODE = 155.5937
ARG_OF_PERICENTER = 89.4930
MEAN_ANOMALY   = 270.6464

EPHEMERIS_TYPE = 0
CLASSIFICATION_TYPE = U
NORAD_CAT_ID   = 43641
ELEMENT_SET_NO = 999
REV_AT_EPOCH   = 38614
BSTAR          = .8214268E-4
MEAN_MOTION_DOT = .602E-5
MEAN_MOTION_DDOT = 0

CCSDS_OMM_VERS = 2.0
CREATION_DATE  = 
ORIGINATOR     = 

OBJECT_NAME    = H-2A R/B
OBJECT_ID      = 2018-084L
CENTER_NAME    = EARTH
REF_FRAME      = TEME
TIME_SYSTEM    = UTC
MEAN_ELEMENT_THEORY = SGP/SGP4

EPOCH          = 2025-11-26T11:33:15.663456
MEAN_MOTION    = 15.36561411
ECCENTRICITY   = .00286322
INCLINATION    = 98.8788
RA_OF_ASC_NODE = 161.2021
ARG_OF_PERICENTER = 21.8755
MEAN_ANOMALY   = 338.3699

EPHEMERIS_TYPE = 0
CLASSIFICATION_TYPE = U
NORAD_CAT_ID   = 43682
ELEMENT_SET_NO = 999
REV_AT_EPOCH   = 38990
BSTAR          = .53653809E-3
MEAN_MOTION_DOT = .1933E-3
MEAN_MOTION_DDOT = 0

CCSDS_OMM_VERS = 2.0
CREATION_DATE  = 
ORIGINATOR     = 

OBJECT_NAME    = SAOCOM 1B
OBJECT_ID      = 2020-059A
CENTER_NAME    = EARTH
REF_FRAME      = TEME
TIME_SYSTEM    = UTC
MEAN_ELEMENT_THEORY = SGP/SGP4

EPOCH          = 2025-11-26T21:44:11.491584
MEAN_MOTION    = 14.82159789
ECCENTRICITY   = .00013387
INCLINATION    = 97.8846
RA_OF_ASC_NODE = 154.6594
ARG_OF_PERICENTER = 90.1446
MEAN_ANOMALY   = 269.9920

EPHEMERIS_TYPE = 0
CLASSIFICATION_TYPE = U
NORAD_CAT_ID   = 46265
ELEMENT_SET_NO = 999
REV_AT_EPOCH   = 28352
BSTAR          = .85393985E-4
MEAN_MOTION_DOT = .628E-5
MEAN_MOTION_DDOT = 0

CCSDS_OMM_VERS = 2.0
CREATION_DATE  = 
ORIGINATOR     = 

OBJECT_NAME    = CSS (TIANHE)
OBJECT_ID      = 2021-035A
CENTER_NAME    = EARTH
REF_FRAME      = TEME
TIME_SYSTEM    = UTC
MEAN_ELEMENT_THEORY = SGP/SGP4

EPOCH          = 2025-11-26T18:15:06.628032
MEAN_MOTION    = 15.58310216
ECCENTRICITY   = .00107613
INCLINATION    = 41.4669
RA_OF_ASC_NODE = 113.6485
ARG_OF_PERICENTER = 276.2599
MEAN_ANOMALY   = 83.7013

EPHEMERIS_TYPE = 0
CLASSIFICATION_TYPE = U
NORAD_CAT_ID   = 48274
ELEMENT_SET_NO = 999
REV_AT_EPOCH   = 26153
BSTAR          = .3051458E-3
MEAN_MOTION_DOT = .23599E-3
MEAN_MOTION_DDOT = 0

CCSDS_OMM_VERS = 2.0
CREATION_DATE  = 
ORIGINATOR     = 

OBJECT_NAME    = COSMOS 2550
OBJECT_ID      = 2021-056A
CENTER_NAME    = EARTH
REF_FRAME      = TEME
TIME_SYSTEM    = UTC
MEAN_ELEMENT_THEORY = SGP/SGP4

EPOCH          = 2025-11-26T19:34:10.629984
MEAN_MOTION    = 15.33840302
ECCENTRICITY   = .0008298
INCLINATION    = 67.1432
RA_OF_ASC_NODE = 352.1024
ARG_OF_PERICENTER = 270.4119
MEAN_ANOMALY   = 89.6085

EPHEMERIS_TYPE = 0
CLASSIFICATION_TYPE = U
NORAD_CAT_ID   = 48865
ELEMENT_SET_NO = 999
REV_AT_EPOCH   = 24768
BSTAR          = .1533894E-5
MEAN_MOTION_DOT = -.141E-5
MEAN_MOTION_DDOT = 0

